[{"OBJECT_NAME":"CUPID","OBJECT_ID":"2021-088E","EPOCH":"2026-03-09T16:04:42.796128","MEAN_MOTION":15.24473777,"ECCENTRICITY":0.0013746,"INCLINATION":97.3985,"RA_OF_ASC_NODE":131.0756,"ARG_OF_PERICENTER":59.9938,"MEAN_ANOMALY":300.2662,"EPHEMERIS_TYPE":0,"CLASSIFICATION_TYPE":"U","NORAD_CAT_ID":49264,"ELEMENT_SET_NO":999,"REV_AT_EPOCH":24501,"BSTAR":0.00038662302,"MEAN_MOTION_DOT":9.454e-5,"MEAN_MOTION_DDOT":0},{"OBJECT_NAME":"STARLINK-31631","OBJECT_ID":"2024-068E","EPOCH":"2026-03-09T22:26:47.756544","MEAN_MOTION":15.2756964,"ECCENTRICITY":9.029e-5,"INCLINATION":43.004,"RA_OF_ASC_NODE":29.382,"ARG_OF_PERICENTER":243.1247,"MEAN_ANOMALY":116.9513,"EPHEMERIS_TYPE":0,"CLASSIFICATION_TYPE":"U","NORAD_CAT_ID":59459,"ELEMENT_SET_NO":999,"REV_AT_EPOCH":10860,"BSTAR":-1.9196613e-5,"MEAN_MOTION_DOT":-7.9e-6,"MEAN_MOTION_DDOT":0}]
